{"type": "FeatureCollection", "features": [ {"type": "Feature", "properties": {"norad_id": 17070, "name": "POLAR BEAR", "group": "nnss", "lat": -59.43430021863025, "lon": -177.4375961102335, "alt_km": 1010.5890842707695, "timestamp": "2025-12-26T18:39:32.548864+00:00", "meta": {"OBJECT_NAME": "POLAR BEAR", "OBJECT_ID": "1986-088A", "EPOCH": "2025-12-26T12:02:59.489088", "MEAN_MOTION": 13.7525362, "ECCENTRICITY": 0.00412658, "INCLINATION": 89.6169, "RA_OF_ASC_NODE": 183.2226, "ARG_OF_PERICENTER": 79.6962, "MEAN_ANOMALY": 298.6828, "EPHEMERIS_TYPE": 0, "CLASSIFICATION_TYPE": "U", "NORAD_CAT_ID": 17070, "ELEMENT_SET_NO": 999, "REV_AT_EPOCH": 96168, "BSTAR": 0.00010681265, "MEAN_MOTION_DOT": 1.15e-06, "MEAN_MOTION_DDOT": 0}, "tle": {"line1": "1 17070U 86088A   25360.50207742  .00000115  00000+0  10681-3 0  9993", "line2": "2 17070  89.6169 183.2226 0041265  79.6962 298.6828 13.75253620961684"}}, "geometry": {"type": "Point", "coordinates": [-177.4375961102335, -59.43430021863025]}}, {"type": "Feature", "properties": {"norad_id": 18361, "name": "OSCAR 27", "group": "nnss", "lat": 74.06457615470298, "lon": -98.89359317296565, "alt_km": 1066.5287127153115, "timestamp": "2025-12-26T18:39:32.548874+00:00", "meta": {"OBJECT_NAME": "OSCAR 27", "OBJECT_ID": "1987-080A", "EPOCH": "2025-12-26T10:59:09.176640", "MEAN_MOTION": 13.44909552, "ECCENTRICITY": 0.01040736, "INCLINATION": 90.3736, "RA_OF_ASC_NODE": 79.7851, "ARG_OF_PERICENTER": 184.3557, "MEAN_ANOMALY": 175.6697, "EPHEMERIS_TYPE": 0, "CLASSIFICATION_TYPE": "U", "NORAD_CAT_ID": 18361, "ELEMENT_SET_NO": 999, "REV_AT_EPOCH": 87741, "BSTAR": 0.00017188841, "MEAN_MOTION_DOT": 1.13e-06, "MEAN_MOTION_DDOT": 0}, "tle": {"line1": "1 18361U 87080A   25360.45774510  .00000113  00000+0  17189-3 0  9994", "line2": "2 18361  90.3736  79.7851 0104073 184.3557 175.6697 13.44909552877414"}}, "geometry": {"type": "Point", "coordinates": [-98.89359317296565, 74.06457615470298]}}, {"type": "Feature", "properties": {"norad_id": 18362, "name": "OSCAR 29", "group": "nnss", "lat": 84.97369756727579, "lon": -95.47481562787273, "alt_km": 1113.4117148082405, "timestamp": "2025-12-26T18:39:32.548884+00:00", "meta": {"OBJECT_NAME": "OSCAR 29", "OBJECT_ID": "1987-080B", "EPOCH": "2025-12-26T11:05:26.932128", "MEAN_MOTION": 13.44450985, "ECCENTRICITY": 0.01048753, "INCLINATION": 90.3748, "RA_OF_ASC_NODE": 80.2454, "ARG_OF_PERICENTER": 207.4741, "MEAN_ANOMALY": 163.2863, "EPHEMERIS_TYPE": 0, "CLASSIFICATION_TYPE": "U", "NORAD_CAT_ID": 18362, "ELEMENT_SET_NO": 999, "REV_AT_EPOCH": 87694, "BSTAR": 0.0001514268, "MEAN_MOTION_DOT": 9.9e-07, "MEAN_MOTION_DDOT": 0}, "tle": {"line1": "1 18362U 87080B   25360.46211727  .00000099  00000+0  15143-3 0  9993", "line2": "2 18362  90.3748  80.2454 0104875 207.4741 163.2863 13.44450985876942"}}, "geometry": {"type": "Point", "coordinates": [-95.47481562787273, 84.97369756727579]}}, {"type": "Feature", "properties": {"norad_id": 19070, "name": "OSCAR 23", "group": "nnss", "lat": 70.47041720432225, "lon": -162.2693067755237, "alt_km": 1025.2142794056908, "timestamp": "2025-12-26T18:39:32.548895+00:00", "meta": {"OBJECT_NAME": "OSCAR 23", "OBJECT_ID": "1988-033A", "EPOCH": "2025-12-26T15:06:18.736128", "MEAN_MOTION": 13.27789302, "ECCENTRICITY": 0.01905928, "INCLINATION": 90.3203, "RA_OF_ASC_NODE": 16.8225, "ARG_OF_PERICENTER": 141.4067, "MEAN_ANOMALY": 341.813, "EPHEMERIS_TYPE": 0, "CLASSIFICATION_TYPE": "U", "NORAD_CAT_ID": 19070, "ELEMENT_SET_NO": 999, "REV_AT_EPOCH": 82437, "BSTAR": 0.00012944345, "MEAN_MOTION_DOT": 7.4e-07, "MEAN_MOTION_DDOT": 0}, "tle": {"line1": "1 19070U 88033A   25360.62938352  .00000074  00000+0  12944-3 0  9996", "line2": "2 19070  90.3203  16.8225 0190592 141.4067 341.8130 13.27789302824375"}}, "geometry": {"type": "Point", "coordinates": [-162.2693067755237, 70.47041720432225]}}, {"type": "Feature", "properties": {"norad_id": 19071, "name": "OSCAR 32", "group": "nnss", "lat": -51.54094908980298, "lon": -163.44439102664361, "alt_km": 1192.3017447031034, "timestamp": "2025-12-26T18:39:32.548904+00:00", "meta": {"OBJECT_NAME": "OSCAR 32", "OBJECT_ID": "1988-033B", "EPOCH": "2025-12-26T10:53:58.879680", "MEAN_MOTION": 13.27955937, "ECCENTRICITY": 0.01893107, "INCLINATION": 90.3209, "RA_OF_ASC_NODE": 16.9498, "ARG_OF_PERICENTER": 128.8267, "MEAN_ANOMALY": 355.8113, "EPHEMERIS_TYPE": 0, "CLASSIFICATION_TYPE": "U", "NORAD_CAT_ID": 19071, "ELEMENT_SET_NO": 999, "REV_AT_EPOCH": 82447, "BSTAR": 0.0001395573, "MEAN_MOTION_DOT": 7.9e-07, "MEAN_MOTION_DDOT": 0}, "tle": {"line1": "1 19071U 88033B   25360.45415370  .00000079  00000+0  13956-3 0  9997", "line2": "2 19071  90.3209  16.9498 0189310 128.8267 355.8113 13.27955937824478"}}, "geometry": {"type": "Point", "coordinates": [-163.44439102664361, -51.54094908980298]}}, {"type": "Feature", "properties": {"norad_id": 19223, "name": "NOVA 2", "group": "nnss", "lat": 6.6426441090185095, "lon": -101.74694013932353, "alt_km": 1196.9559804872397, "timestamp": "2025-12-26T18:39:32.548915+00:00", "meta": {"OBJECT_NAME": "NOVA 2", "OBJECT_ID": "1988-052A", "EPOCH": "2025-12-26T12:23:46.849344", "MEAN_MOTION": 13.22937569, "ECCENTRICITY": 0.00294231, "INCLINATION": 89.9863, "RA_OF_ASC_NODE": 78.255, "ARG_OF_PERICENTER": 338.6148, "MEAN_ANOMALY": 32.6671, "EPHEMERIS_TYPE": 0, "CLASSIFICATION_TYPE": "U", "NORAD_CAT_ID": 19223, "ELEMENT_SET_NO": 999, "REV_AT_EPOCH": 81130, "BSTAR": 0.00012017844, "MEAN_MOTION_DOT": 5.9e-07, "MEAN_MOTION_DDOT": 0}, "tle": {"line1": "1 19223U 88052A   25360.51651446  .00000059  00000+0  12018-3 0  9996", "line2": "2 19223  89.9863  78.2550 0029423 338.6148  32.6671 13.22937569811307"}}, "geometry": {"type": "Point", "coordinates": [-101.74694013932353, 6.6426441090185095]}}, {"type": "Feature", "properties": {"norad_id": 19419, "name": "OSCAR 25", "group": "nnss", "lat": 17.5209943510272, "lon": -159.7000404481486, "alt_km": 1047.4223483553278, "timestamp": "2025-12-26T18:39:32.548936+00:00", "meta": {"OBJECT_NAME": "OSCAR 25", "OBJECT_ID": "1988-074A", "EPOCH": "2025-12-26T13:18:28.068192", "MEAN_MOTION": 13.42625822, "ECCENTRICITY": 0.00953169, "INCLINATION": 90.0336, "RA_OF_ASC_NODE": 20.2886, "ARG_OF_PERICENTER": 205.9306, "MEAN_ANOMALY": 320.1104, "EPHEMERIS_TYPE": 0, "CLASSIFICATION_TYPE": "U", "NORAD_CAT_ID": 19419, "ELEMENT_SET_NO": 999, "REV_AT_EPOCH": 82825, "BSTAR": 0.00014338017, "MEAN_MOTION_DOT": 9.2e-07, "MEAN_MOTION_DDOT": 0}, "tle": {"line1": "1 19419U 88074A   25360.55449153  .00000092  00000+0  14338-3 0  9995", "line2": "2 19419  90.0336  20.2886 0095316 205.9306 320.1104 13.42625822828253"}}, "geometry": {"type": "Point", "coordinates": [-159.7000404481486, 17.5209943510272]}}, {"type": "Feature", "properties": {"norad_id": 19420, "name": "OSCAR 31", "group": "nnss", "lat": 44.39005662309517, "lon": 20.607022610773605, "alt_km": 1159.3247711327085, "timestamp": "2025-12-26T18:39:32.548957+00:00", "meta": {"OBJECT_NAME": "OSCAR 31", "OBJECT_ID": "1988-074B", "EPOCH": "2025-12-26T11:51:56.301696", "MEAN_MOTION": 13.42586778, "ECCENTRICITY": 0.00937157, "INCLINATION": 90.0354, "RA_OF_ASC_NODE": 20.6407, "ARG_OF_PERICENTER": 200.2518, "MEAN_ANOMALY": 277.3694, "EPHEMERIS_TYPE": 0, "CLASSIFICATION_TYPE": "U", "NORAD_CAT_ID": 19420, "ELEMENT_SET_NO": 999, "REV_AT_EPOCH": 82835, "BSTAR": 0.00010498182, "MEAN_MOTION_DOT": 7e-07, "MEAN_MOTION_DDOT": 0}, "tle": {"line1": "1 19420U 88074B   25360.49440164  .00000070  00000+0  10498-3 0  9992", "line2": "2 19420  90.0354  20.6407 0093715 200.2518 277.3694 13.42586778828356"}}, "geometry": {"type": "Point", "coordinates": [20.607022610773605, 44.39005662309517]}}]}